index,OBJECT_NAME,OBJECT_ID,EPOCH,MEAN_MOTION,ECCENTRICITY,INCLINATION,RA_OF_ASC_NODE,ARG_OF_PERICENTER,MEAN_ANOMALY,EPHEMERIS_TYPE,CLASSIFICATION_TYPE,NORAD_CAT_ID,ELEMENT_SET_NO,REV_AT_EPOCH,BSTAR,MEAN_MOTION_DOT,MEAN_MOTION_DDOT,GROUP,downloaded
186,ELFIN-B,2018-070D,2022-05-12T15:04:41.930976,15.61429424,0.0013868,93.0202,84.4063,132.8143,227.4292,0,U,43616,999,20575,0.00080398,0.00069259,0.0,satnogs,2022-05-13 13:10:41.661533
187,ELFIN-A,2018-070E,2022-05-12T14:41:38.641056,15.63032693,0.0013567,93.0275,85.6687,128.4287,231.8201,0,U,43617,999,20579,0.0007957,0.0007295,0.0,satnogs,2022-05-13 13:10:41.661533
188,CZ-4B R/B,2018-081B,2022-05-12T15:15:43.052544,14.30550226,0.0207506,99.3912,263.5816,246.9325,110.9859,0,U,43656,999,18523,7.5088e-05,1.88e-06,0.0,satnogs,2022-05-13 13:10:41.661533
189,CUBEBEL-1 (BSUSAT-1),2018-083E,2022-05-13T02:38:35.823840,15.22508497,0.0015381,97.4238,162.2063,97.9146,350.3218,0,U,43666,999,19610,0.00037322,8.61e-05,0.0,satnogs,2022-05-13 13:10:41.661533
190,CHANGSHAGAOXIN (TY 4-01),2018-083H,2022-05-13T02:39:53.788608,15.20996093,0.0011915,97.4178,158.2927,95.0591,299.7199,0,U,43669,999,19593,0.00036338,8.005e-05,0.0,satnogs,2022-05-13 13:10:41.661533
191,TEN-KOH,2018-084G,2022-05-12T18:40:38.185536,14.90991966,0.0016454,97.9586,262.5182,33.4775,326.7479,0,U,43677,999,19236,0.00014522,1.38e-05,0.0,satnogs,2022-05-13 13:10:41.661533
192,DIWATA-2B,2018-084H,2022-05-13T02:37:36.146496,14.92096082,0.0010926,97.9641,265.9732,47.5891,312.6254,0,U,43678,999,19258,4.8765e-05,4.37e-06,0.0,satnogs,2022-05-13 13:10:41.661533
193,STARS-AO,2018-084J,2022-05-12T19:32:27.028608,14.93380671,0.0009899,97.9686,267.4999,54.1539,306.0599,0,U,43679,999,19262,0.00017927,1.823e-05,0.0,satnogs,2022-05-13 13:10:41.661533
194,AUTCUBE 2,2018-084K,2022-05-12T19:35:14.698176,14.927855,0.0010247,97.9651,266.2055,49.0348,311.1755,0,U,43681,999,19253,0.00015225,1.516e-05,0.0,satnogs,2022-05-13 13:10:41.661533
195,IRVINE01,2018-088D,2022-05-13T00:55:18.109056,15.35159789,0.001142,85.0294,334.82,235.6909,124.3259,0,U,43693,999,19478,0.00096086,0.00032965,0.0,satnogs,2022-05-13 13:10:41.661533
196,ES'HAIL 2,2018-090A,2022-05-12T20:21:39.034944,1.00271864,0.0002533,0.0498,90.354,349.1003,122.3408,0,U,43700,999,1267,0.0,1.55e-06,0.0,satnogs,2022-05-13 13:10:41.661533
197,FACSAT-1,2018-096C,2022-05-13T02:57:51.498144,15.3474993,0.001525,97.3507,213.0106,174.843,271.8888,0,U,43721,999,19255,0.00053274,0.00017952,0.0,satnogs,2022-05-13 13:10:41.661533
198,CENTAURI-2,2018-096D,2022-05-12T04:48:02.661984,15.37501397,0.0014369,97.3563,213.8717,176.7873,183.3466,0,U,43722,999,19250,0.00068711,0.0002533,0.0,satnogs,2022-05-13 13:10:41.661533
199,3CAT-1,2018-096K,2022-05-12T11:11:27.857760,15.37634874,0.0014247,97.3577,214.8793,177.772,182.3591,0,U,43728,999,19258,0.00066746,0.00024706,0.0,satnogs,2022-05-13 13:10:41.661533
200,INNOSAT-2,2018-096V,2022-05-13T01:23:57.079392,15.45577213,0.00172,97.3648,221.2441,167.7598,315.9962,0,U,43738,999,19303,0.00086168,0.00041732,0.0,satnogs,2022-05-13 13:10:41.661533
201,REAKTOR HELLO WORLD,2018-096AA,2022-05-13T03:57:06.641280,15.32984716,0.0015932,97.3535,213.2021,180.5532,179.5696,0,U,43743,999,19255,0.00045696,0.00014549,0.0,satnogs,2022-05-13 13:10:41.661533
202,ELYSIUM STAR 2 & LFF,2018-099C,2022-05-12T20:55:33.640032,14.98185429,0.0013414,97.6312,202.182,32.1685,328.0354,0,U,43760,999,18779,0.00054992,6.48e-05,0.0,satnogs,2022-05-13 13:10:41.661533
203,2018-099D,2018-099D,2022-05-12T22:47:42.180000,14.95776447,0.0014921,97.6237,200.6206,34.8711,325.3487,0,U,43761,999,18771,0.00016653,1.804e-05,0.0,satnogs,2022-05-13 13:10:41.661533
204,AISTECHSAT 2,2018-099L,2022-05-13T04:17:37.932000,14.95596707,0.0011839,97.6188,199.4046,33.5714,326.6255,0,U,43768,999,18741,0.00018621,2.013e-05,0.0,satnogs,2022-05-13 13:10:41.661533
205,FOX-1CLIFF (AO-95),2018-099N,2022-05-12T03:29:48.836832,14.96234905,0.0015265,97.6233,199.4387,43.6834,316.5593,0,U,43770,999,18758,0.00024406,2.703e-05,0.0,satnogs,2022-05-13 13:10:41.661533
206,RANGE-A,2018-099Q,2022-05-13T03:46:46.211520,14.96812002,0.0014324,97.6342,202.0172,27.2825,332.9146,0,U,43772,999,18775,0.00027104,3.053e-05,0.0,satnogs,2022-05-13 13:10:41.661533
207,RANGE-B,2018-099R,2022-05-12T15:51:09.423072,14.95883067,0.0013827,97.6154,198.8778,29.8583,330.3424,0,U,43773,999,18764,0.00019924,2.175e-05,0.0,satnogs,2022-05-13 13:10:41.661533
208,2018-099T,2018-099T,2022-05-12T15:39:18.976608,14.95869049,0.0014971,97.6225,200.0742,32.9304,327.2847,0,U,43775,999,18765,0.00014825,1.604e-05,0.0,satnogs,2022-05-13 13:10:41.661533
209,MOVE-II,2018-099Y,2022-05-13T03:17:47.753664,14.97391349,0.0013644,97.6265,201.4427,38.1285,322.09,0,U,43780,999,18777,0.00045306,5.219e-05,0.0,satnogs,2022-05-13 13:10:41.661533
210,SNUSAT-2,2018-099AA,2022-05-13T03:11:42.173664,14.96418665,0.001286,97.6229,200.852,28.01,332.1811,0,U,43782,999,18775,0.00028273,3.153e-05,0.0,satnogs,2022-05-13 13:10:41.661533
211,SNUGLITE,2018-099AC,2022-05-13T04:12:46.496160,14.96608302,0.0015154,97.6184,200.5414,31.8197,328.3938,0,U,43784,999,18778,0.00023732,2.652e-05,0.0,satnogs,2022-05-13 13:10:41.661533
212,ITASAT 1,2018-099AE,2022-05-13T03:30:01.599840,14.96414951,0.0015653,97.6258,201.3115,33.4788,326.7419,0,U,43786,999,18777,0.00025091,2.794e-05,0.0,satnogs,2022-05-13 13:10:41.661533
