ELFIN-B                 
1 43616U 18070D   22132.62826309  .00069259  00000+0  80398-3 0  9993
2 43616  93.0202  84.4063 0013868 132.8143 227.4292 15.61429424205756
ELFIN-A                 
1 43617U 18070E   22132.61225279  .00072950  00000+0  79570-3 0  9994
2 43617  93.0275  85.6687 0013567 128.4287 231.8201 15.63032693205791
CZ-4B R/B               
1 43656U 18081B   22132.63591496  .00000188  00000+0  75088-4 0  9993
2 43656  99.3912 263.5816 0207506 246.9325 110.9859 14.30550226185231
CUBEBEL-1 (BSUSAT-1)    
1 43666U 18083E   22133.11013685  .00008610  00000+0  37322-3 0  9995
2 43666  97.4238 162.2063 0015381  97.9146 350.3218 15.22508497196106
CHANGSHAGAOXIN (TY 4-01)
1 43669U 18083H   22133.11103922  .00008005  00000+0  36338-3 0  9996
2 43669  97.4178 158.2927 0011915  95.0591 299.7199 15.20996093195933
TEN-KOH                 
1 43677U 18084G   22132.77821974  .00001380  00000+0  14522-3 0  9991
2 43677  97.9586 262.5182 0016454  33.4775 326.7479 14.90991966192361
DIWATA-2B               
1 43678U 18084H   22133.10944614  .00000437  00000+0  48765-4 0  9996
2 43678  97.9641 265.9732 0010926  47.5891 312.6254 14.92096082192581
STARS-AO                
1 43679U 18084J   22132.81420172  .00001823  00000+0  17927-3 0  9997
2 43679  97.9686 267.4999 0009899  54.1539 306.0599 14.93380671192628
AUTCUBE 2               
1 43681U 18084K   22132.81614234  .00001516  00000+0  15225-3 0  9992
2 43681  97.9651 266.2055 0010247  49.0348 311.1755 14.92785500192533
IRVINE01                
1 43693U 18088D   22133.03840404  .00032965  00000+0  96086-3 0  9990
2 43693  85.0294 334.8200 0011420 235.6909 124.3259 15.35159789194785
ES'HAIL 2               
1 43700U 18090A   22132.84836846  .00000155  00000+0  00000+0 0  9998
2 43700   0.0498  90.3540 0002533 349.1003 122.3408  1.00271864 12676
FACSAT-1                
1 43721U 18096C   22133.12351271  .00017952  00000+0  53274-3 0  9991
2 43721  97.3507 213.0106 0015250 174.8430 271.8888 15.34749930192552
CENTAURI-2              
1 43722U 18096D   22132.20003081  .00025330  00000+0  68711-3 0  9994
2 43722  97.3563 213.8717 0014369 176.7873 183.3466 15.37501397192503
3CAT-1                  
1 43728U 18096K   22132.46629465  .00024706  00000+0  66746-3 0  9990
2 43728  97.3577 214.8793 0014247 177.7720 182.3591 15.37634874192589
INNOSAT-2               
1 43738U 18096V   22133.05829953  .00041732  00000+0  86168-3 0  9999
2 43738  97.3648 221.2441 0017200 167.7598 315.9962 15.45577213193034
REAKTOR HELLO WORLD     
1 43743U 18096AA  22133.16466020  .00014549  00000+0  45696-3 0  9996
2 43743  97.3535 213.2021 0015932 180.5532 179.5696 15.32984716192551
ELYSIUM STAR 2 & LFF    
1 43760U 18099C   22132.87191713  .00006480  00000+0  54992-3 0  9993
2 43760  97.6312 202.1820 0013414  32.1685 328.0354 14.98185429187791
2018-099D               
1 43761U 18099D   22132.94979375  .00001804  00000+0  16653-3 0  9997
2 43761  97.6237 200.6206 0014921  34.8711 325.3487 14.95776447187714
AISTECHSAT 2            
1 43768U 18099L   22133.17891125  .00002013  00000+0  18621-3 0  9996
2 43768  97.6188 199.4046 0011839  33.5714 326.6255 14.95596707187410
FOX-1CLIFF (AO-95)      
1 43770U 18099N   22132.14570413  .00002703  00000+0  24406-3 0  9993
2 43770  97.6233 199.4387 0015265  43.6834 316.5593 14.96234905187585
RANGE-A                 
1 43772U 18099Q   22133.15747930  .00003053  00000+0  27104-3 0  9994
2 43772  97.6342 202.0172 0014324  27.2825 332.9146 14.96812002187759
RANGE-B                 
1 43773U 18099R   22132.66052573  .00002175  00000+0  19924-3 0  9997
2 43773  97.6154 198.8778 0013827  29.8583 330.3424 14.95883067187648
2018-099T               
1 43775U 18099T   22132.65230297  .00001604  00000+0  14825-3 0  9990
2 43775  97.6225 200.0742 0014971  32.9304 327.2847 14.95869049187652
MOVE-II                 
1 43780U 18099Y   22133.13735826  .00005219  00000+0  45306-3 0  9992
2 43780  97.6265 201.4427 0013644  38.1285 322.0900 14.97391349187770
SNUSAT-2                
1 43782U 18099AA  22133.13312701  .00003153  00000+0  28273-3 0  9996
2 43782  97.6229 200.8520 0012860  28.0100 332.1811 14.96418665187753
SNUGLITE                
1 43784U 18099AC  22133.17553815  .00002652  00000+0  23732-3 0  9993
2 43784  97.6184 200.5414 0015154  31.8197 328.3938 14.96608302187780
ITASAT 1                
1 43786U 18099AE  22133.14585185  .00002794  00000+0  25091-3 0  9994
2 43786  97.6258 201.3115 0015653  33.4788 326.7419 14.96414951187779
